{"type":"FeatureCollection","features":[{"type":"Feature","properties":{"k":"SOUTHGUJRAT","n":"South Gujrat"},"geometry":{"type":"Polygon","coordinates":[[[71.7215,19.9399],[71.6452,20.0723],[71.5629,20.0275],[71.3291,19.9577],[71.202,19.9503],[70.9246,19.9014],[70.6016,19.8975],[70.2638,19.9803],[69.9982,20.1157],[69.8982,20.1975],[69.695,20.2883],[69.2421,20.7155],[69.9149,21.3264],[70.2576,20.9945],[70.4997,20.849],[70.7282,20.7667],[70.7827,20.7217],[70.8435,20.7094],[70.8754,20.7435],[70.8561,20.7746],[70.935,20.7471],[71.0032,20.7513],[71.0261,20.7929],[71.4047,20.8956],[71.6778,21.0479],[72.097,21.2075],[72.1146,21.3452],[72.1036,21.3849],[72.2293,21.4398],[72.266,21.5463],[72.2766,21.6596],[72.1908,21.9451],[72.2328,21.9634],[72.2731,22.0138],[72.3253,22.1534],[72.3115,22.2413],[72.5226,22.3324],[72.6121,22.2804],[72.7348,22.2541],[72.8193,22.2904],[72.8646,22.2523],[72.7383,22.1899],[72.6934,22.2199],[72.5899,22.2149],[72.5572,22.1811],[72.497,22.0251],[72.5238,21.8573],[72.6053,21.9418],[72.5999,21.8852],[72.5437,21.81],[72.5148,21.7119],[72.5271,21.6481],[72.5361,21.6405],[72.5768,21.6828],[72.6817,21.6557],[72.6758,21.6071],[72.6242,21.6046],[72.6184,21.556],[72.6888,21.5272],[72.6847,21.4465],[72.6088,21.2657],[72.6453,21.0743],[72.754,20.967],[72.837,20.8583],[72.9025,20.5959],[72.8974,20.5313],[72.8052,20.3419],[72.7849,20.2445],[72.7392,20.1457],[71.7215,19.9399]]]}},{"type":"Feature","properties":{"k":"NORTHMAHARASHTRA","n":"North Maharashtra"},"geometry":{"type":"Polygon","coordinates":[[[73.1784,17.5218],[72.256,17.2998],[72.0667,17.8266],[71.934,18.3648],[71.8968,18.5634],[71.8873,18.86],[71.8338,19.323],[71.7665,19.7293],[71.7112,19.9353],[72.7543,20.1425],[72.7247,20.0606],[72.7545,19.9817],[72.6858,19.9944],[72.683,19.8897],[72.6594,19.8564],[72.7074,19.7543],[72.7438,19.5551],[72.7526,19.5475],[72.7758,19.5888],[72.8211,19.5348],[72.7641,19.4918],[72.7676,19.4277],[72.8213,19.3741],[72.8977,19.3698],[72.7986,19.3248],[72.781,19.1794],[72.8238,19.0128],[72.8895,19.0481],[72.9526,19.1314],[72.9939,19.1494],[73.0027,18.9812],[72.9648,18.8991],[73.0006,18.8607],[72.9888,18.7638],[72.9522,18.8183],[72.8787,18.7746],[72.9035,18.6233],[72.9489,18.5613],[72.9082,18.5352],[72.9523,18.3368],[73.0326,18.2444],[72.9556,18.2728],[73.0016,18.1948],[73.0684,17.8772],[73.14,17.7844],[73.1784,17.5218]]]}},{"type":"Feature","properties":{"k":"SOUTHMAHARASHTRA","n":"South Maharashtra"},"geometry":{"type":"Polygon","coordinates":[[[73.6798,15.7296],[72.8487,15.3959],[72.7208,15.6368],[72.4978,16.2484],[72.3903,16.6905],[72.2814,17.2931],[73.2038,17.515],[73.207,17.4511],[73.1678,17.4012],[73.2554,17.3172],[73.2661,17.2696],[73.2075,17.2749],[73.284,17.0784],[73.3045,16.8313],[73.3451,16.6812],[73.3379,16.489],[73.3718,16.4745],[73.3961,16.3158],[73.4604,16.1829],[73.5031,16.1529],[73.4841,16.0322],[73.5276,15.9863],[73.5467,15.9312],[73.5965,15.9254],[73.6507,15.8241],[73.6798,15.7296]]]}},{"type":"Feature","properties":{"k":"GOA","n":"Goa"},"geometry":{"type":"MultiPolygon","coordinates":[[[[74.0993,14.8865],[74.0948,14.8914],[74.1232,14.9034],[74.0993,14.8865]]],[[[73.0383,14.9827],[72.8571,15.3923],[73.6839,15.7298],[73.7056,15.7068],[73.782,15.4748],[73.8224,15.4924],[73.812,15.4481],[73.8662,15.4305],[73.8878,15.4075],[73.8973,15.38],[73.8022,15.3919],[73.816,15.3606],[73.8607,15.3705],[73.886,15.3556],[73.9222,15.2814],[73.9528,15.1472],[73.9317,15.0667],[74.0373,14.9954],[74.037,14.9078],[74.0779,14.9095],[74.0948,14.8914],[73.2529,14.5352],[73.0383,14.9827]]]]}},{"type":"Feature","properties":{"k":"KARNATAKA","n":"Karnataka"},"geometry":{"type":"Polygon","coordinates":[[[74.8663,12.773],[74.0113,12.4157],[73.8024,12.9526],[73.7822,13.2211],[73.7219,13.48],[73.6462,13.7147],[73.2491,14.531],[74.1232,14.9034],[74.1606,14.7935],[74.1851,14.7945],[74.2113,14.7557],[74.2613,14.7338],[74.3364,14.4982],[74.3869,14.4604],[74.5038,13.9881],[74.5456,13.9579],[74.6318,13.8342],[74.6442,13.7235],[74.6812,13.6059],[74.7374,13.1958],[74.8115,12.9451],[74.8237,12.8348],[74.8663,12.773]]]}},{"type":"Feature","properties":{"k":"NORTHKERALA","n":"North Kerala"},"geometry":{"type":"Polygon","coordinates":[[[75.2446,10.1053],[75.1967,10.1194],[75.0271,10.4428],[74.8832,10.9088],[74.7796,11.1252],[74.5802,11.3381],[74.0239,12.4044],[74.8625,12.7689],[74.8964,12.7227],[75.2273,12.0074],[75.2593,12.0084],[75.3105,11.9155],[75.5091,11.7169],[75.7782,11.2841],[75.9377,10.7385],[76.0572,10.4437],[75.2446,10.1053]]]}},{"type":"Feature","properties":{"k":"SOUTHKERALA","n":"South Kerala"},"geometry":{"type":"Polygon","coordinates":[[[76.6165,7.6514],[76.5389,7.6495],[76.3968,7.7389],[76.2848,7.8601],[76.094,8.0101],[75.9486,8.1924],[75.7853,8.4363],[75.6337,8.7898],[75.2446,10.1053],[76.0726,10.4598],[76.2984,9.714],[76.355,9.3561],[76.5035,9.0789],[76.5563,8.8464],[76.6677,8.7712],[76.8128,8.5877],[77.1155,8.3142],[76.6165,7.6514]]]}},{"type":"Feature","properties":{"k":"SOUTHODISHA","n":"South Odisha"},"geometry":{"type":"Polygon","coordinates":[[[85.6705,18.61],[84.7888,19.0816],[84.891,19.2386],[85.0571,19.3953],[85.2999,19.552],[85.4022,19.6001],[85.4788,19.6724],[85.645,19.6964],[85.6833,19.7566],[85.7728,19.7566],[85.875,19.7926],[85.9006,19.8287],[86.0539,19.8768],[86.2073,19.8888],[86.2584,19.9128],[87.0763,19.2868],[86.6673,19.1662],[86.2456,19.1058],[86.0284,18.9487],[85.9006,18.9004],[85.8111,18.8036],[85.7728,18.7915],[85.645,18.6705],[85.6705,18.61]]]}},{"type":"Feature","properties":{"k":"NORTHTAMILNADU","n":"North Tamilnadu"},"geometry":{"type":"Polygon","coordinates":[[[79.9241,9.4379],[78.9955,9.7067],[79.251,10.0257],[79.2425,10.1347],[79.2766,10.227],[79.3277,10.294],[79.4214,10.3108],[79.4726,10.2856],[79.8389,10.2689],[79.8815,10.3275],[79.8559,10.5789],[79.8645,10.9221],[79.8389,11.3985],[79.7793,11.5822],[79.7793,11.7407],[79.8815,12.1158],[80.0689,12.3989],[80.1371,12.4737],[80.2052,12.6151],[80.2393,12.7647],[80.2649,13.0305],[80.3245,13.1964],[80.3501,13.3457],[80.2904,13.5528],[81.1168,13.5114],[81.0998,12.881],[81.0487,12.7647],[81.0487,12.6317],[80.9976,12.5652],[80.9464,12.2324],[80.8272,12.0825],[80.8101,11.9492],[80.759,11.8991],[80.7079,11.5321],[80.7249,11.3818],[80.7249,10.9472],[80.759,10.294],[80.7249,9.9082],[80.5886,9.7571],[80.5205,9.7235],[80.3671,9.7067],[80.2649,9.7571],[80.1456,9.7907],[80.0604,9.7907],[80.0093,9.7739],[79.9241,9.6395],[79.9071,9.5555],[79.9241,9.4379]]]}},{"type":"Feature","properties":{"k":"SOUTHANDHRA","n":"South Andhra"},"geometry":{"type":"Polygon","coordinates":[[[81.1253,13.5114],[80.316,13.5445],[80.2478,13.5859],[80.2308,13.6191],[80.2223,13.8839],[80.1286,14.074],[80.1286,14.264],[80.1967,14.5198],[80.1967,14.594],[80.1371,14.7094],[80.0945,14.8577],[80.0434,14.9647],[80.0348,15.1293],[80.0774,15.2197],[80.0945,15.3677],[80.1626,15.4087],[80.2223,15.4744],[80.3075,15.7288],[80.3501,15.7862],[80.4267,15.8436],[80.6909,15.8927],[80.7931,15.8927],[80.7931,15.8682],[80.759,15.8354],[80.7675,15.7698],[80.8698,15.7124],[80.955,15.7124],[81.0061,15.7452],[81.0487,15.8846],[81.1253,15.9747],[81.2361,16.1548],[81.3213,16.3347],[81.5258,16.3756],[81.7388,16.3184],[81.8069,16.3593],[82.2414,16.5227],[82.284,16.5635],[82.3436,16.6941],[82.3607,16.841],[83.2808,16.5472],[83.1786,16.253],[83.0422,16.0893],[82.8719,16.0074],[82.7355,15.9091],[82.6163,15.86],[82.4459,15.8272],[82.2414,15.8108],[82.1392,15.7616],[81.9517,15.6468],[81.8495,15.3677],[81.7643,15.2691],[81.6791,15.2197],[81.2361,15.0388],[81.0657,15.0223],[81.1168,14.973],[81.1339,14.8412],[81.185,14.693],[81.1679,14.4621],[81.2191,14.1979],[81.2191,14.0988],[81.185,13.9666],[81.185,13.8508],[81.1339,13.7184],[81.0998,13.5363],[81.0998,13.5197],[81.1253,13.5114]]]}},{"type":"Feature","properties":{"k":"NORTHANDHRA","n":"North Andhra"},"geometry":{"type":"MultiPolygon","coordinates":[[[[83.2605,16.5565],[83.2893,16.5472],[83.2723,16.5227],[83.2605,16.5565]]],[[[82.3096,16.8491],[82.2329,16.8817],[82.284,17.0121],[82.3607,17.1017],[82.5396,17.2401],[82.6589,17.297],[82.6929,17.3377],[82.8804,17.4109],[82.9315,17.4515],[82.9997,17.4596],[83.0848,17.5328],[83.3064,17.6546],[83.366,17.7763],[83.4767,17.9142],[83.6045,18.0276],[83.7409,18.1329],[84.1242,18.319],[84.2691,18.4969],[84.3628,18.5615],[84.4735,18.731],[84.5587,18.7875],[84.5843,18.8681],[84.7376,19.0132],[84.7802,19.0857],[85.6578,18.618],[85.5214,18.3433],[85.2999,18.1167],[85.1977,17.9385],[85.1295,17.8737],[84.9421,17.7276],[84.6695,17.6789],[84.3969,17.5328],[84.2435,17.419],[84.2094,17.2889],[84.0902,17.1424],[83.8516,16.9958],[83.4597,16.8002],[83.3234,16.686],[83.2723,16.6696],[83.2382,16.6207],[83.2605,16.5565],[82.3607,16.8491],[82.3096,16.8491]]]]}},{"type":"Feature","properties":{"k":"NORTHGUJRAT","n":"North Gujrat"},"geometry":{"type":"Polygon","coordinates":[[[69.925,21.3069],[69.2182,20.6936],[69.1435,20.7688],[68.9796,20.8858],[68.7914,21.0814],[68.5385,21.2235],[68.4191,21.4079],[68.2522,21.5402],[68.1292,21.7564],[68.0373,22.0074],[68.0197,22.1997],[68.0967,22.4964],[67.8359,22.6856],[67.565,22.9704],[67.5104,23.1759],[67.3862,23.3757],[67.4023,23.5708],[67.4946,23.8853],[68.8083,23.9226],[68.6423,23.8135],[68.5285,23.5144],[68.6079,23.4074],[68.7177,23.351],[68.6421,23.2162],[68.749,23.1919],[68.7213,23.1091],[68.9243,22.9788],[69.3226,22.7976],[69.4969,22.7936],[69.6687,22.8215],[69.838,22.8814],[70.1389,23.0464],[70.1639,23.177],[70.3177,23.2191],[70.5123,23.183],[70.6999,23.243],[70.6917,23.1135],[70.5448,22.9754],[70.5357,22.862],[70.2407,22.6175],[69.8064,22.3954],[69.7164,22.4377],[69.6882,22.3551],[69.533,22.3444],[69.1617,22.2215],[69.2173,22.3868],[69.0939,22.4102],[69.1032,22.5077],[69.004,22.2423],[69.1974,21.9982],[69.3678,21.8167],[69.5891,21.6387],[69.925,21.3069]]]}},{"type":"Feature","properties":{"k":"SOUTHTAMILNADU","n":"South Tamilnadu"},"geometry":{"type":"Polygon","coordinates":[[[78.9827,9.7151],[79.9198,9.4379],[79.8772,9.3875],[79.8517,9.2782],[79.8687,9.2277],[80.005,9.0763],[80.0306,8.9838],[80.0306,8.908],[80.005,8.7733],[79.9113,8.6639],[79.7665,8.6302],[79.4427,8.6302],[79.1616,8.6639],[79.0849,8.6049],[79.0082,8.4869],[78.9742,8.1835],[78.9145,8.0232],[78.8378,7.8798],[78.48,7.5336],[78.1392,7.3816],[77.9774,7.3562],[77.9263,7.3309],[77.7388,7.314],[77.4066,7.3224],[76.9806,7.4407],[76.7761,7.5252],[76.6142,7.635],[77.1169,8.2847],[77.1851,8.2425],[77.2191,8.1919],[77.381,8.0991],[77.5173,8.0654],[77.7814,8.175],[77.824,8.2341],[78.0711,8.3774],[78.1392,8.5628],[78.1478,8.8828],[78.1989,8.9753],[78.3693,9.1016],[78.6163,9.152],[78.8293,9.2445],[78.9742,9.2529],[79.2723,9.2529],[79.4342,9.1436],[79.3405,9.2698],[79.3405,9.3202],[79.0934,9.3034],[78.9997,9.3706],[78.9486,9.4295],[78.889,9.5471],[78.9827,9.7151]]]}},{"type":"Feature","properties":{"k":"WESTBENGAL","n":"West Bengal"},"geometry":{"type":"Polygon","coordinates":[[[87.468,21.6021],[87.7081,21.6584],[87.8285,21.7287],[87.9709,21.8742],[88.0493,22.0271],[88.1212,22.0716],[88.1,22.0083],[88.0366,21.9593],[88.0391,21.931],[88.0822,21.9287],[88.1095,21.9514],[88.1114,21.9835],[88.1752,22.0365],[88.1957,22.0877],[88.2198,22.0582],[88.2183,22.0341],[88.1755,21.972],[88.1748,21.8915],[88.0929,21.8234],[88.0847,21.7594],[88.0225,21.6581],[88.1068,21.6294],[88.129,21.6403],[88.1373,21.7043],[88.1673,21.7711],[88.1602,21.8641],[88.2371,21.8519],[88.2434,21.8153],[88.2131,21.7444],[88.1856,21.7178],[88.1838,21.6897],[88.2013,21.6243],[88.2654,21.5483],[88.2916,21.5549],[88.2846,21.6479],[88.3268,21.702],[88.3531,21.7086],[88.4201,21.6122],[88.4439,21.6471],[88.4419,21.6835],[88.489,21.7453],[88.4785,21.7821],[88.5025,21.821],[88.496,21.8536],[88.5231,21.8722],[88.5514,21.8424],[88.577,21.9699],[88.6194,22.0238],[88.6549,22.0379],[88.7181,22.0142],[88.8214,22.1371],[88.8666,22.1022],[88.9267,22.0946],[88.9235,22.1754],[88.989,22.1836],[89.0432,22.2166],[89.6181,21.7942],[89.5141,21.7283],[89.4305,21.7054],[89.3753,21.6564],[89.3538,21.5973],[89.2767,21.4812],[89.1269,21.3696],[89.0334,21.3229],[88.9197,21.2934],[88.6187,21.2909],[88.506,21.2087],[88.3117,21.123],[87.468,21.6021]]]}},{"type":"Feature","properties":{"k":"LAKSHADWEEP","n":"Lakshadweep"},"geometry":{"type":"Polygon","coordinates":[[[71.2147,12.5553],[73.9356,12.603],[74.1344,12.1734],[74.4686,11.5688],[74.5879,11.3142],[74.8027,11.1074],[74.93,10.805],[75.0573,10.3993],[75.2323,10.097],[75.654,8.7366],[75.829,8.3706],[76.004,8.116],[71.3579,8.0364],[71.2147,12.5553]]]}},{"type":"Feature","properties":{"k":"ANDAMANANDNICOBAR","n":"Andaman and Nicobar"},"geometry":{"type":"Polygon","coordinates":[[[91.653,15.2404],[95.0899,15.304],[95.3763,6.5845],[91.9394,6.489],[91.653,15.2404]]]}},{"type":"Feature","properties":{"k":"NORTHODISHA","n":"North Odisha"},"geometry":{"type":"MultiPolygon","coordinates":[[[[87.074,19.2945],[87.0763,19.2929],[87.0699,19.2748],[87.074,19.2945]]],[[[86.2648,19.9309],[86.4053,19.9849],[86.514,20.171],[86.6354,20.2609],[86.7696,20.3328],[86.8143,20.3867],[86.8271,20.4466],[86.7632,20.3987],[86.7376,20.4286],[86.744,20.4765],[86.8143,20.5543],[86.974,20.6381],[87.006,20.6799],[87.0571,20.7098],[86.9932,20.7098],[86.9868,20.7218],[86.9612,20.8472],[86.8335,21.1693],[86.8335,21.211],[86.8782,21.2944],[86.9868,21.4075],[87.121,21.5145],[87.1849,21.5442],[87.351,21.5561],[87.383,21.5739],[87.4085,21.5621],[87.4724,21.6036],[88.3095,21.1216],[88.0922,20.9905],[87.99,20.8353],[88.0028,20.6799],[88.0667,20.5842],[88.0922,20.4526],[88.0539,20.3088],[87.9261,20.0329],[87.76,19.8528],[87.5427,19.6844],[87.5044,19.6724],[87.3127,19.5158],[87.1849,19.3833],[87.0826,19.3351],[87.074,19.2945],[86.2584,19.8948],[86.2648,19.9309]]]]}}]}