{"type":"FeatureCollection","features":[{"type":"Feature","properties":{"n":"Agartala","t":"PPLA","a":"Tripura"},"geometry":{"type":"Point","coordinates":[91.2794,23.8361]}},{"type":"Feature","properties":{"n":"Aizawl","t":"PPLA","a":"Mizoram"},"geometry":{"type":"Point","coordinates":[92.7179,23.7289]}},{"type":"Feature","properties":{"n":"Amarāvati","t":"PPLA","a":"State of Andhra Pradesh"},"geometry":{"type":"Point","coordinates":[80.5153,16.5417]}},{"type":"Feature","properties":{"n":"Bengaluru","t":"PPLA","a":"State of Karnataka"},"geometry":{"type":"Point","coordinates":[77.5937,12.9719]}},{"type":"Feature","properties":{"n":"Bhopal","t":"PPLA","a":"Madhya Pradesh"},"geometry":{"type":"Point","coordinates":[77.4029,23.2547]}},{"type":"Feature","properties":{"n":"Bhubaneswar","t":"PPLA","a":"State of Odisha"},"geometry":{"type":"Point","coordinates":[85.8338,20.2724]}},{"type":"Feature","properties":{"n":"Chandigarh","t":"PPLA","a":"Union Territory of Chandigarh"},"geometry":{"type":"Point","coordinates":[76.7884,30.7363]}},{"type":"Feature","properties":{"n":"Chennai","t":"PPLA","a":"State of Tamil Nādu"},"geometry":{"type":"Point","coordinates":[80.2785,13.0878]}},{"type":"Feature","properties":{"n":"Daman","t":"PPLA","a":"Dadra and Nagar Haveli and Daman and Diu"},"geometry":{"type":"Point","coordinates":[72.8324,20.4143]}},{"type":"Feature","properties":{"n":"Dehradun","t":"PPLA","a":"State of Uttarākhand"},"geometry":{"type":"Point","coordinates":[78.0339,30.3244]}},{"type":"Feature","properties":{"n":"Delhi","t":"PPLA","a":"National Capital Territory of Delhi"},"geometry":{"type":"Point","coordinates":[77.2315,28.6519]}},{"type":"Feature","properties":{"n":"Dispur","t":"PPLA","a":"Assam"},"geometry":{"type":"Point","coordinates":[91.8007,26.1356]}},{"type":"Feature","properties":{"n":"Gandhinagar","t":"PPLA","a":"State of Gujarāt"},"geometry":{"type":"Point","coordinates":[72.6833,23.2167]}},{"type":"Feature","properties":{"n":"Gangtok","t":"PPLA","a":"Sikkim"},"geometry":{"type":"Point","coordinates":[88.6122,27.3257]}},{"type":"Feature","properties":{"n":"Hyderabad","t":"PPLA","a":"State of Telangāna"},"geometry":{"type":"Point","coordinates":[78.4564,17.384]}},{"type":"Feature","properties":{"n":"Imphal","t":"PPLA","a":"Manipur"},"geometry":{"type":"Point","coordinates":[93.9442,24.8081]}},{"type":"Feature","properties":{"n":"Itanagar","t":"PPLA","a":"State of Arunāchal Pradesh"},"geometry":{"type":"Point","coordinates":[93.6099,27.0869]}},{"type":"Feature","properties":{"n":"Jaipur","t":"PPLA","a":"State of Rājasthān"},"geometry":{"type":"Point","coordinates":[75.7878,26.9196]}},{"type":"Feature","properties":{"n":"Jammu","t":"PPLA","a":"State of Jammu and Kashmīr"},"geometry":{"type":"Point","coordinates":[74.8617,32.7353]}},{"type":"Feature","properties":{"n":"Kargil","t":"PPLA","a":"Ladakh"},"geometry":{"type":"Point","coordinates":[76.1262,34.5577]}},{"type":"Feature","properties":{"n":"Kavaratti","t":"PPLA","a":"Union Territory of Lakshadweep"},"geometry":{"type":"Point","coordinates":[72.642,10.5669]}},{"type":"Feature","properties":{"n":"Kohima","t":"PPLA","a":"State of Nāgāland"},"geometry":{"type":"Point","coordinates":[94.111,25.6747]}},{"type":"Feature","properties":{"n":"Kolkata","t":"PPLA","a":"West Bengal"},"geometry":{"type":"Point","coordinates":[88.363,22.5626]}},{"type":"Feature","properties":{"n":"Lucknow","t":"PPLA","a":"Uttar Pradesh"},"geometry":{"type":"Point","coordinates":[80.9231,26.8393]}},{"type":"Feature","properties":{"n":"Mumbai","t":"PPLA","a":"State of Mahārāshtra"},"geometry":{"type":"Point","coordinates":[72.8826,19.0728]}},{"type":"Feature","properties":{"n":"Panjim","t":"PPLA","a":"Goa"},"geometry":{"type":"Point","coordinates":[73.8262,15.4957]}},{"type":"Feature","properties":{"n":"Patna","t":"PPLA","a":"State of Bihar"},"geometry":{"type":"Point","coordinates":[85.1356,25.5941]}},{"type":"Feature","properties":{"n":"Port Blair","t":"PPLA","a":"Union Territory of Andaman and Nicobar Islands"},"geometry":{"type":"Point","coordinates":[92.7464,11.6661]}},{"type":"Feature","properties":{"n":"Puducherry","t":"PPLA","a":"Union Territory of Puducherry"},"geometry":{"type":"Point","coordinates":[79.8298,11.9338]}},{"type":"Feature","properties":{"n":"Raipur","t":"PPLA","a":"State of Chhattīsgarh"},"geometry":{"type":"Point","coordinates":[81.6333,21.2333]}},{"type":"Feature","properties":{"n":"Ranchi","t":"PPLA","a":"State of Jhārkhand"},"geometry":{"type":"Point","coordinates":[85.3094,23.3432]}},{"type":"Feature","properties":{"n":"Shillong","t":"PPLA","a":"Meghālaya"},"geometry":{"type":"Point","coordinates":[91.8831,25.5689]}},{"type":"Feature","properties":{"n":"Shimla","t":"PPLA","a":"State of Himāchal Pradesh"},"geometry":{"type":"Point","coordinates":[77.1666,31.1044]}},{"type":"Feature","properties":{"n":"Srinagar","t":"PPLA","a":"State of Jammu and Kashmīr"},"geometry":{"type":"Point","coordinates":[74.8055,34.0857]}},{"type":"Feature","properties":{"n":"Thiruvananthapuram","t":"PPLA","a":"State of Kerala"},"geometry":{"type":"Point","coordinates":[76.9492,8.4855]}},{"type":"Feature","properties":{"n":"Agar","t":"PPLA2","a":"Madhya Pradesh"},"geometry":{"type":"Point","coordinates":[76.0157,23.7118]}},{"type":"Feature","properties":{"n":"Agra","t":"PPLA2","a":"Uttar Pradesh"},"geometry":{"type":"Point","coordinates":[78.0167,27.1833]}},{"type":"Feature","properties":{"n":"Alappuzha","t":"PPLA2","a":"State of Kerala"},"geometry":{"type":"Point","coordinates":[76.3264,9.49]}},{"type":"Feature","properties":{"n":"Along","t":"PPLA2","a":"State of Arunāchal Pradesh"},"geometry":{"type":"Point","coordinates":[94.8006,28.1695]}},{"type":"Feature","properties":{"n":"Alīpur","t":"PPLA2","a":"National Capital Territory of Delhi"},"geometry":{"type":"Point","coordinates":[77.1331,28.7986]}},{"type":"Feature","properties":{"n":"Alīpur Duār","t":"PPLA2","a":"West Bengal"},"geometry":{"type":"Point","coordinates":[89.5229,26.4835]}},{"type":"Feature","properties":{"n":"Ambikāpur","t":"PPLA2","a":"State of Chhattīsgarh"},"geometry":{"type":"Point","coordinates":[83.1954,23.1189]}},{"type":"Feature","properties":{"n":"Ampati","t":"PPLA2","a":"Meghālaya"},"geometry":{"type":"Point","coordinates":[89.9333,25.4623]}},{"type":"Feature","properties":{"n":"Amravati","t":"PPLA2","a":"State of Mahārāshtra"},"geometry":{"type":"Point","coordinates":[77.75,20.9333]}},{"type":"Feature","properties":{"n":"Amreli","t":"PPLA2","a":"State of Gujarāt"},"geometry":{"type":"Point","coordinates":[71.2117,21.5998]}},{"type":"Feature","properties":{"n":"Anand","t":"PPLA2","a":"State of Gujarāt"},"geometry":{"type":"Point","coordinates":[72.9552,22.5525]}},{"type":"Feature","properties":{"n":"Asifābād","t":"PPLA2","a":"State of Telangāna"},"geometry":{"type":"Point","coordinates":[79.2841,19.3585]}},{"type":"Feature","properties":{"n":"Aurangabad","t":"PPLA2","a":"State of Mahārāshtra"},"geometry":{"type":"Point","coordinates":[75.3423,19.8776]}},{"type":"Feature","properties":{"n":"Azamgarh","t":"PPLA2","a":"Uttar Pradesh"},"geometry":{"type":"Point","coordinates":[83.1836,26.0683]}},{"type":"Feature","properties":{"n":"Balod","t":"PPLA2","a":"State of Chhattīsgarh"},"geometry":{"type":"Point","coordinates":[81.2058,20.7308]}},{"type":"Feature","properties":{"n":"Baloda Bāzār","t":"PPLA2","a":"State of Chhattīsgarh"},"geometry":{"type":"Point","coordinates":[82.1606,21.6568]}},{"type":"Feature","properties":{"n":"Balrampur","t":"PPLA2","a":"State of Chhattīsgarh"},"geometry":{"type":"Point","coordinates":[83.6111,23.6122]}},{"type":"Feature","properties":{"n":"Begusarai","t":"PPLA2","a":"State of Bihar"},"geometry":{"type":"Point","coordinates":[86.1339,25.4185]}},{"type":"Feature","properties":{"n":"Belonia","t":"PPLA2","a":"Tripura"},"geometry":{"type":"Point","coordinates":[91.4541,23.2518]}},{"type":"Feature","properties":{"n":"Bemetāra","t":"PPLA2","a":"State of Chhattīsgarh"},"geometry":{"type":"Point","coordinates":[81.5342,21.7156]}},{"type":"Feature","properties":{"n":"Bhongīr","t":"PPLA2","a":"State of Telangāna"},"geometry":{"type":"Point","coordinates":[78.8856,17.5154]}},{"type":"Feature","properties":{"n":"Bhuj","t":"PPLA2","a":"State of Gujarāt"},"geometry":{"type":"Point","coordinates":[69.6693,23.254]}},{"type":"Feature","properties":{"n":"Bishnupur","t":"PPLA2","a":"Manipur"},"geometry":{"type":"Point","coordinates":[93.7618,24.6285]}},{"type":"Feature","properties":{"n":"Bishramganj","t":"PPLA2","a":"Tripura"},"geometry":{"type":"Point","coordinates":[91.3435,23.6058]}},{"type":"Feature","properties":{"n":"Biswanath Chariali","t":"PPLA2","a":"Assam"},"geometry":{"type":"Point","coordinates":[93.1466,26.7258]}},{"type":"Feature","properties":{"n":"Bokāro","t":"PPLA2","a":"State of Jhārkhand"},"geometry":{"type":"Point","coordinates":[86.1516,23.6693]}},{"type":"Feature","properties":{"n":"Botad","t":"PPLA2","a":"State of Gujarāt"},"geometry":{"type":"Point","coordinates":[71.6667,22.1692]}},{"type":"Feature","properties":{"n":"Bāsār","t":"PPLA2","a":"State of Arunāchal Pradesh"},"geometry":{"type":"Point","coordinates":[94.6945,27.9901]}},{"type":"Feature","properties":{"n":"Chamrajnagar","t":"PPLA2","a":"State of Karnataka"},"geometry":{"type":"Point","coordinates":[76.9395,11.9231]}},{"type":"Feature","properties":{"n":"Chandel","t":"PPLA2","a":"Manipur"},"geometry":{"type":"Point","coordinates":[94.0038,24.3299]}},{"type":"Feature","properties":{"n":"Charkhi Dādri","t":"PPLA2","a":"State of Haryāna"},"geometry":{"type":"Point","coordinates":[76.2716,28.5917]}},{"type":"Feature","properties":{"n":"Chengalpattu","t":"PPLA2","a":"State of Tamil Nādu"},"geometry":{"type":"Point","coordinates":[79.9766,12.6918]}},{"type":"Feature","properties":{"n":"Chhota Udepur","t":"PPLA2","a":"State of Gujarāt"},"geometry":{"type":"Point","coordinates":[74.0158,22.304]}},{"type":"Feature","properties":{"n":"Chittoor","t":"PPLA2","a":"State of Andhra Pradesh"},"geometry":{"type":"Point","coordinates":[79.0956,13.2105]}},{"type":"Feature","properties":{"n":"Defence Colony","t":"PPLA2","a":"National Capital Territory of Delhi"},"geometry":{"type":"Point","coordinates":[77.2327,28.5714]}},{"type":"Feature","properties":{"n":"Dhanbad","t":"PPLA2","a":"State of Jhārkhand"},"geometry":{"type":"Point","coordinates":[86.4299,23.7976]}},{"type":"Feature","properties":{"n":"Dharmanagar","t":"PPLA2","a":"Tripura"},"geometry":{"type":"Point","coordinates":[92.1667,24.3667]}},{"type":"Feature","properties":{"n":"Dhule","t":"PPLA2","a":"State of Mahārāshtra"},"geometry":{"type":"Point","coordinates":[74.7774,20.9013]}},{"type":"Feature","properties":{"n":"Dibrugarh","t":"PPLA2","a":"Assam"},"geometry":{"type":"Point","coordinates":[94.9084,27.4799]}},{"type":"Feature","properties":{"n":"Eluru","t":"PPLA2","a":"State of Andhra Pradesh"},"geometry":{"type":"Point","coordinates":[81.1044,16.7131]}},{"type":"Feature","properties":{"n":"Faridabad","t":"PPLA2","a":"State of Haryāna"},"geometry":{"type":"Point","coordinates":[77.3132,28.4112]}},{"type":"Feature","properties":{"n":"Fazilka","t":"PPLA2","a":"State of Punjab"},"geometry":{"type":"Point","coordinates":[74.0284,30.4021]}},{"type":"Feature","properties":{"n":"Gadwāl","t":"PPLA2","a":"State of Telangāna"},"geometry":{"type":"Point","coordinates":[77.7956,16.235]}},{"type":"Feature","properties":{"n":"Garamur","t":"PPLA2","a":"Assam"},"geometry":{"type":"Point","coordinates":[94.172,26.9489]}},{"type":"Feature","properties":{"n":"Gariāband","t":"PPLA2","a":"State of Chhattīsgarh"},"geometry":{"type":"Point","coordinates":[82.0622,20.6332]}},{"type":"Feature","properties":{"n":"Ghāziābād","t":"PPLA2","a":"Uttar Pradesh"},"geometry":{"type":"Point","coordinates":[77.4391,28.6654]}},{"type":"Feature","properties":{"n":"Gurugram","t":"PPLA2","a":"State of Haryāna"},"geometry":{"type":"Point","coordinates":[77.0263,28.4601]}},{"type":"Feature","properties":{"n":"Gyalshing","t":"PPLA2","a":"Sikkim"},"geometry":{"type":"Point","coordinates":[88.2576,27.2895]}},{"type":"Feature","properties":{"n":"Hamren","t":"PPLA2","a":"Assam"},"geometry":{"type":"Point","coordinates":[92.6166,25.9335]}},{"type":"Feature","properties":{"n":"Hatsingimari","t":"PPLA2","a":"Assam"},"geometry":{"type":"Point","coordinates":[89.9008,25.7099]}},{"type":"Feature","properties":{"n":"Hawai","t":"PPLA2","a":"State of Arunāchal Pradesh"},"geometry":{"type":"Point","coordinates":[96.8017,27.8868]}},{"type":"Feature","properties":{"n":"Himatnagar","t":"PPLA2","a":"State of Gujarāt"},"geometry":{"type":"Point","coordinates":[72.966,23.5989]}},{"type":"Feature","properties":{"n":"Hnahthial","t":"PPLA2","a":"Mizoram"},"geometry":{"type":"Point","coordinates":[92.76,22.91]}},{"type":"Feature","properties":{"n":"Hnahthial","t":"PPLA2","a":"Mizoram"},"geometry":{"type":"Point","coordinates":[92.9297,22.9661]}},{"type":"Feature","properties":{"n":"Hojāi","t":"PPLA2","a":"Assam"},"geometry":{"type":"Point","coordinates":[92.856,26.0028]}},{"type":"Feature","properties":{"n":"Hoshiārpur","t":"PPLA2","a":"State of Punjab"},"geometry":{"type":"Point","coordinates":[75.9127,31.5372]}},{"type":"Feature","properties":{"n":"Hāpur","t":"PPLA2","a":"Uttar Pradesh"},"geometry":{"type":"Point","coordinates":[77.7807,28.7298]}},{"type":"Feature","properties":{"n":"Jagtiāl","t":"PPLA2","a":"State of Telangāna"},"geometry":{"type":"Point","coordinates":[78.9166,18.7947]}},{"type":"Feature","properties":{"n":"Jalpāiguri","t":"PPLA2","a":"West Bengal"},"geometry":{"type":"Point","coordinates":[88.7333,26.5167]}},{"type":"Feature","properties":{"n":"Jangaon","t":"PPLA2","a":"State of Telangāna"},"geometry":{"type":"Point","coordinates":[79.1524,17.726]}},{"type":"Feature","properties":{"n":"Jharsuguda","t":"PPLA2","a":"State of Odisha"},"geometry":{"type":"Point","coordinates":[84.007,21.8553]}},{"type":"Feature","properties":{"n":"Jhārgrām","t":"PPLA2","a":"West Bengal"},"geometry":{"type":"Point","coordinates":[86.995,22.4538]}},{"type":"Feature","properties":{"n":"Jiribam","t":"PPLA2","a":"Manipur"},"geometry":{"type":"Point","coordinates":[93.1215,24.8043]}},{"type":"Feature","properties":{"n":"Kailāshahar","t":"PPLA2","a":"Tripura"},"geometry":{"type":"Point","coordinates":[92.0039,24.332]}},{"type":"Feature","properties":{"n":"Kakching","t":"PPLA2","a":"Manipur"},"geometry":{"type":"Point","coordinates":[93.9813,24.4982]}},{"type":"Feature","properties":{"n":"Kalimpong, Крукети","t":"PPLA2","a":"West Bengal"},"geometry":{"type":"Point","coordinates":[88.4621,27.0562]}},{"type":"Feature","properties":{"n":"Kallakurichi","t":"PPLA2","a":"State of Tamil Nādu"},"geometry":{"type":"Point","coordinates":[78.9592,11.7338]}},{"type":"Feature","properties":{"n":"Kamjong","t":"PPLA2","a":"Manipur"},"geometry":{"type":"Point","coordinates":[94.5155,24.8585]}},{"type":"Feature","properties":{"n":"Karīmnagar","t":"PPLA2","a":"State of Telangāna"},"geometry":{"type":"Point","coordinates":[79.1286,18.4392]}},{"type":"Feature","properties":{"n":"Kawardha","t":"PPLA2","a":"State of Chhattīsgarh"},"geometry":{"type":"Point","coordinates":[81.2315,22.0085]}},{"type":"Feature","properties":{"n":"Khambhāliya","t":"PPLA2","a":"State of Gujarāt"},"geometry":{"type":"Point","coordinates":[69.6503,22.2068]}},{"type":"Feature","properties":{"n":"Khawzawl","t":"PPLA2","a":"Mizoram"},"geometry":{"type":"Point","coordinates":[93.1889,23.5177]}},{"type":"Feature","properties":{"n":"Khliehriat","t":"PPLA2","a":"Meghālaya"},"geometry":{"type":"Point","coordinates":[92.3664,25.3578]}},{"type":"Feature","properties":{"n":"Khowai","t":"PPLA2","a":"Tripura"},"geometry":{"type":"Point","coordinates":[91.5997,24.0796]}},{"type":"Feature","properties":{"n":"Kollam","t":"PPLA2","a":"State of Kerala"},"geometry":{"type":"Point","coordinates":[76.5847,8.8811]}},{"type":"Feature","properties":{"n":"Kondagaon","t":"PPLA2","a":"State of Chhattīsgarh"},"geometry":{"type":"Point","coordinates":[81.664,19.5908]}},{"type":"Feature","properties":{"n":"Kottagūdem","t":"PPLA2","a":"State of Telangāna"},"geometry":{"type":"Point","coordinates":[80.6178,17.5511]}},{"type":"Feature","properties":{"n":"Kozhikode","t":"PPLA2","a":"State of Kerala"},"geometry":{"type":"Point","coordinates":[75.7804,11.248]}},{"type":"Feature","properties":{"n":"Kāmāreddi","t":"PPLA2","a":"State of Telangāna"},"geometry":{"type":"Point","coordinates":[78.3418,18.32]}},{"type":"Feature","properties":{"n":"Kāngpokpi","t":"PPLA2","a":"Manipur"},"geometry":{"type":"Point","coordinates":[93.9717,25.1527]}},{"type":"Feature","properties":{"n":"Lemmi","t":"PPLA2","a":"State of Arunāchal Pradesh"},"geometry":{"type":"Point","coordinates":[93.2464,27.1467]}},{"type":"Feature","properties":{"n":"Longleng","t":"PPLA2","a":"State of Nāgāland"},"geometry":{"type":"Point","coordinates":[94.8177,26.4899]}},{"type":"Feature","properties":{"n":"Lūnāvāda","t":"PPLA2","a":"State of Gujarāt"},"geometry":{"type":"Point","coordinates":[73.6104,23.1284]}},{"type":"Feature","properties":{"n":"Madurai","t":"PPLA2","a":"State of Tamil Nādu"},"geometry":{"type":"Point","coordinates":[78.1195,9.919]}},{"type":"Feature","properties":{"n":"Mahbūbnagar","t":"PPLA2","a":"State of Telangāna"},"geometry":{"type":"Point","coordinates":[77.986,16.7438]}},{"type":"Feature","properties":{"n":"Mahbūbābād","t":"PPLA2","a":"State of Telangāna"},"geometry":{"type":"Point","coordinates":[80.0021,17.5973]}},{"type":"Feature","properties":{"n":"Malda","t":"PPLA2","a":"West Bengal"},"geometry":{"type":"Point","coordinates":[88.1457,25.0045]}},{"type":"Feature","properties":{"n":"Mayiladuthurai","t":"PPLA2","a":"State of Tamil Nādu"},"geometry":{"type":"Point","coordinates":[79.655,11.1035]}},{"type":"Feature","properties":{"n":"Modāsa","t":"PPLA2","a":"State of Gujarāt"},"geometry":{"type":"Point","coordinates":[73.2986,23.4625]}},{"type":"Feature","properties":{"n":"Morigaon","t":"PPLA2","a":"Assam"},"geometry":{"type":"Point","coordinates":[92.3476,26.2491]}},{"type":"Feature","properties":{"n":"Morvi","t":"PPLA2","a":"State of Gujarāt"},"geometry":{"type":"Point","coordinates":[70.8377,22.8173]}},{"type":"Feature","properties":{"n":"Morādābād","t":"PPLA2","a":"Uttar Pradesh"},"geometry":{"type":"Point","coordinates":[78.7768,28.8389]}},{"type":"Feature","properties":{"n":"Mulugu","t":"PPLA2","a":"State of Telangāna"},"geometry":{"type":"Point","coordinates":[79.943,18.191]}},{"type":"Feature","properties":{"n":"Mungeli","t":"PPLA2","a":"State of Chhattīsgarh"},"geometry":{"type":"Point","coordinates":[81.6854,22.0657]}},{"type":"Feature","properties":{"n":"Mushalpur","t":"PPLA2","a":"Assam"},"geometry":{"type":"Point","coordinates":[91.4261,26.5792]}},{"type":"Feature","properties":{"n":"Muzaffarnagar","t":"PPLA2","a":"Uttar Pradesh"},"geometry":{"type":"Point","coordinates":[77.7033,29.4709]}},{"type":"Feature","properties":{"n":"Mysuru","t":"PPLA2","a":"State of Karnataka"},"geometry":{"type":"Point","coordinates":[76.6393,12.2979]}},{"type":"Feature","properties":{"n":"Nagaon","t":"PPLA2","a":"Assam"},"geometry":{"type":"Point","coordinates":[92.6667,26.35]}},{"type":"Feature","properties":{"n":"Nagpur","t":"PPLA2","a":"State of Mahārāshtra"},"geometry":{"type":"Point","coordinates":[79.0849,21.1463]}},{"type":"Feature","properties":{"n":"Namsai","t":"PPLA2","a":"State of Arunāchal Pradesh"},"geometry":{"type":"Point","coordinates":[95.864,27.669]}},{"type":"Feature","properties":{"n":"Nashik","t":"PPLA2","a":"State of Mahārāshtra"},"geometry":{"type":"Point","coordinates":[73.791,19.9973]}},{"type":"Feature","properties":{"n":"Navsari","t":"PPLA2","a":"State of Gujarāt"},"geometry":{"type":"Point","coordinates":[72.9247,20.9424]}},{"type":"Feature","properties":{"n":"Neemuch","t":"PPLA2","a":"State of Rājasthān"},"geometry":{"type":"Point","coordinates":[74.8624,24.4764]}},{"type":"Feature","properties":{"n":"Nellore","t":"PPLA2","a":"State of Andhra Pradesh"},"geometry":{"type":"Point","coordinates":[79.987,14.4499]}},{"type":"Feature","properties":{"n":"Nirmal","t":"PPLA2","a":"State of Telangāna"},"geometry":{"type":"Point","coordinates":[78.3441,19.0968]}},{"type":"Feature","properties":{"n":"Nowrangapur","t":"PPLA2","a":"State of Odisha"},"geometry":{"type":"Point","coordinates":[82.5483,19.2311]}},{"type":"Feature","properties":{"n":"Nāgar Karnūl","t":"PPLA2","a":"State of Telangāna"},"geometry":{"type":"Point","coordinates":[78.3247,16.4821]}},{"type":"Feature","properties":{"n":"Nārāyanpet","t":"PPLA2","a":"State of Telangāna"},"geometry":{"type":"Point","coordinates":[77.4954,16.748]}},{"type":"Feature","properties":{"n":"Panchkula","t":"PPLA2","a":"State of Haryāna"},"geometry":{"type":"Point","coordinates":[76.8504,30.6946]}},{"type":"Feature","properties":{"n":"Pangin","t":"PPLA2","a":"State of Arunāchal Pradesh"},"geometry":{"type":"Point","coordinates":[94.9887,28.2102]}},{"type":"Feature","properties":{"n":"Peddapalli","t":"PPLA2","a":"State of Telangāna"},"geometry":{"type":"Point","coordinates":[79.3744,18.6136]}},{"type":"Feature","properties":{"n":"Pherzawl","t":"PPLA2","a":"Manipur"},"geometry":{"type":"Point","coordinates":[93.1887,24.2623]}},{"type":"Feature","properties":{"n":"Purnia","t":"PPLA2","a":"State of Bihar"},"geometry":{"type":"Point","coordinates":[87.4742,25.7789]}},{"type":"Feature","properties":{"n":"Pālghar","t":"PPLA2","a":"State of Mahārāshtra"},"geometry":{"type":"Point","coordinates":[72.7654,19.6969]}},{"type":"Feature","properties":{"n":"Raga","t":"PPLA2","a":"State of Arunāchal Pradesh"},"geometry":{"type":"Point","coordinates":[94.0743,27.7993]}},{"type":"Feature","properties":{"n":"Resubelpara","t":"PPLA2","a":"Meghālaya"},"geometry":{"type":"Point","coordinates":[90.6075,25.904]}},{"type":"Feature","properties":{"n":"Rānipet","t":"PPLA2","a":"State of Tamil Nādu"},"geometry":{"type":"Point","coordinates":[79.3333,12.9247]}},{"type":"Feature","properties":{"n":"Saitual","t":"PPLA2","a":"Mizoram"},"geometry":{"type":"Point","coordinates":[92.9671,23.6831]}},{"type":"Feature","properties":{"n":"Sambhal","t":"PPLA2","a":"Uttar Pradesh"},"geometry":{"type":"Point","coordinates":[78.5696,28.585]}},{"type":"Feature","properties":{"n":"Sangāreddi","t":"PPLA2","a":"State of Telangāna"},"geometry":{"type":"Point","coordinates":[78.0867,17.6248]}},{"type":"Feature","properties":{"n":"Shahdara","t":"PPLA2","a":"National Capital Territory of Delhi"},"geometry":{"type":"Point","coordinates":[77.1399,28.6031]}},{"type":"Feature","properties":{"n":"Shahmīrpet","t":"PPLA2","a":"State of Telangāna"},"geometry":{"type":"Point","coordinates":[78.5749,17.5946]}},{"type":"Feature","properties":{"n":"Shāmli","t":"PPLA2","a":"Uttar Pradesh"},"geometry":{"type":"Point","coordinates":[77.3096,29.4497]}},{"type":"Feature","properties":{"n":"Siddipet","t":"PPLA2","a":"State of Telangāna"},"geometry":{"type":"Point","coordinates":[78.8486,18.1048]}},{"type":"Feature","properties":{"n":"Silvassa","t":"PPLA2","a":"Dadra and Nagar Haveli and Daman and Diu"},"geometry":{"type":"Point","coordinates":[72.9967,20.2739]}},{"type":"Feature","properties":{"n":"Sirsilla","t":"PPLA2","a":"State of Telangāna"},"geometry":{"type":"Point","coordinates":[78.8105,18.3886]}},{"type":"Feature","properties":{"n":"Sonari","t":"PPLA2","a":"Assam"},"geometry":{"type":"Point","coordinates":[95.0275,27.0734]}},{"type":"Feature","properties":{"n":"Sri Ganganagar","t":"PPLA2","a":"State of Rājasthān"},"geometry":{"type":"Point","coordinates":[73.875,29.9201]}},{"type":"Feature","properties":{"n":"Sukma","t":"PPLA2","a":"State of Chhattīsgarh"},"geometry":{"type":"Point","coordinates":[81.6594,18.3901]}},{"type":"Feature","properties":{"n":"Surajpur","t":"PPLA2","a":"State of Chhattīsgarh"},"geometry":{"type":"Point","coordinates":[82.8684,23.2135]}},{"type":"Feature","properties":{"n":"Surat","t":"PPLA2","a":"State of Gujarāt"},"geometry":{"type":"Point","coordinates":[72.8302,21.1959]}},{"type":"Feature","properties":{"n":"Suriāpet","t":"PPLA2","a":"State of Telangāna"},"geometry":{"type":"Point","coordinates":[79.6205,17.1405]}},{"type":"Feature","properties":{"n":"Tato","t":"PPLA2","a":"State of Arunāchal Pradesh"},"geometry":{"type":"Point","coordinates":[94.3725,28.5275]}},{"type":"Feature","properties":{"n":"Tengnoupal","t":"PPLA2","a":"Manipur"},"geometry":{"type":"Point","coordinates":[94.1472,24.3855]}},{"type":"Feature","properties":{"n":"Thrissur","t":"PPLA2","a":"State of Kerala"},"geometry":{"type":"Point","coordinates":[76.2167,10.5167]}},{"type":"Feature","properties":{"n":"Tirunelveli","t":"PPLA2","a":"State of Tamil Nādu"},"geometry":{"type":"Point","coordinates":[77.6838,8.7274]}},{"type":"Feature","properties":{"n":"Tirupattur","t":"PPLA2","a":"State of Tamil Nādu"},"geometry":{"type":"Point","coordinates":[78.568,12.4924]}},{"type":"Feature","properties":{"n":"Udaipur","t":"PPLA2","a":"Tripura"},"geometry":{"type":"Point","coordinates":[91.4833,23.5333]}},{"type":"Feature","properties":{"n":"Valsād","t":"PPLA2","a":"State of Gujarāt"},"geometry":{"type":"Point","coordinates":[72.9343,20.6101]}},{"type":"Feature","properties":{"n":"Verāval","t":"PPLA2","a":"State of Gujarāt"},"geometry":{"type":"Point","coordinates":[70.3679,20.9077]}},{"type":"Feature","properties":{"n":"Vikārābād","t":"PPLA2","a":"State of Telangāna"},"geometry":{"type":"Point","coordinates":[77.9044,17.3381]}},{"type":"Feature","properties":{"n":"Visakhapatnam","t":"PPLA2","a":"State of Andhra Pradesh"},"geometry":{"type":"Point","coordinates":[83.2016,17.6801]}},{"type":"Feature","properties":{"n":"Vizianagaram","t":"PPLA2","a":"State of Andhra Pradesh"},"geometry":{"type":"Point","coordinates":[83.4115,18.1169]}},{"type":"Feature","properties":{"n":"Wanparti","t":"PPLA2","a":"State of Telangāna"},"geometry":{"type":"Point","coordinates":[78.0689,16.3674]}},{"type":"Feature","properties":{"n":"Warangal","t":"PPLA2","a":"State of Telangāna"},"geometry":{"type":"Point","coordinates":[79.5833,18.0]}},{"type":"Feature","properties":{"n":"Williamnagar","t":"PPLA2","a":"Meghālaya"},"geometry":{"type":"Point","coordinates":[90.6168,25.4955]}},{"type":"Feature","properties":{"n":"Zunheboto","t":"PPLA2","a":"State of Nāgāland"},"geometry":{"type":"Point","coordinates":[94.5167,25.9667]}},{"type":"Feature","properties":{"n":"Āsansol","t":"PPLA2","a":"West Bengal"},"geometry":{"type":"Point","coordinates":[86.9833,23.6833]}},{"type":"Feature","properties":{"n":"New Delhi","t":"PPLC","a":"National Capital Territory of Delhi"},"geometry":{"type":"Point","coordinates":[77.2148,28.6214]}}]}